[{"OBJECT_NAME":"STARLINK-33754","OBJECT_ID":"2025-070AD","EPOCH":"2026-03-09T22:33:42.434208","MEAN_MOTION":15.27582531,"ECCENTRICITY":0.00019883,"INCLINATION":42.9997,"RA_OF_ASC_NODE":258.4595,"ARG_OF_PERICENTER":262.681,"MEAN_ANOMALY":97.3816,"EPHEMERIS_TYPE":0,"CLASSIFICATION_TYPE":"U","NORAD_CAT_ID":63487,"ELEMENT_SET_NO":999,"REV_AT_EPOCH":5301,"BSTAR":0.00097229539,"MEAN_MOTION_DOT":0.00026592,"MEAN_MOTION_DDOT":0},{"OBJECT_NAME":"SCS-01 G","OBJECT_ID":"2025-100G","EPOCH":"2026-03-09T22:06:35.300160","MEAN_MOTION":15.25626619,"ECCENTRICITY":0.00115239,"INCLINATION":97.3761,"RA_OF_ASC_NODE":145.2582,"ARG_OF_PERICENTER":298.6971,"MEAN_ANOMALY":61.3108,"EPHEMERIS_TYPE":0,"CLASSIFICATION_TYPE":"U","NORAD_CAT_ID":63988,"ELEMENT_SET_NO":999,"REV_AT_EPOCH":4562,"BSTAR":0.00025501168,"MEAN_MOTION_DOT":6.423e-5,"MEAN_MOTION_DDOT":0}]
